{
  "norad_id": 55343,
  "name": "STARLINK-5661",
  "history": [
    {
      "epoch": "2026-04-10T02:12:50.660928Z",
      "apogee_km": 486.33401244041943,
      "perigee_km": 484.7830917934634,
      "latitude_deg": -1.6406287938688285e-05,
      "longitude_deg": -106.13176352981348,
      "height_km": 485.22167530810026,
      "semi_major_axis_km": 6863.695552116941,
      "eccentricity": 0.00011298,
      "inclination_deg": 43.0027,
      "raan_deg": 125.4104,
      "arg_perigee_deg": 278.4343,
      "mean_anomaly_deg": 81.638,
      "mean_motion_rev_day": 15.26742322
    },
    {
      "epoch": "2026-04-11T12:45:25.328160Z",
      "apogee_km": 486.3176080719386,
      "perigee_km": 484.8048489823723,
      "latitude_deg": 2.871835988626994e-05,
      "longitude_deg": 86.186605710141,
      "height_km": 485.2667313740093,
      "semi_major_axis_km": 6863.698228527155,
      "eccentricity": 0.0001102,
      "inclination_deg": 43.0019,
      "raan_deg": 117.2918,
      "arg_perigee_deg": 275.4047,
      "mean_anomaly_deg": 84.6679,
      "mean_motion_rev_day": 15.26741429
    },
    {
      "epoch": "2026-04-13T07:09:01.927008Z",
      "apogee_km": 486.6845113571135,
      "perigee_km": 484.45792441123194,
      "latitude_deg": -1.389815771511829e-06,
      "longitude_deg": 158.57913817338147,
      "height_km": 485.2602861550358,
      "semi_major_axis_km": 6863.708217884173,
      "eccentricity": 0.0001622,
      "inclination_deg": 43.0024,
      "raan_deg": 107.3279,
      "arg_perigee_deg": 274.5426,
      "mean_anomaly_deg": 85.524,
      "mean_motion_rev_day": 15.26738096
    },
    {
      "epoch": "2026-04-14T16:07:24.358080Z",
      "apogee_km": 486.5109690337458,
      "perigee_km": 484.600117029765,
      "latitude_deg": -3.1328953795196377e-05,
      "longitude_deg": 14.88389609139464,
      "height_km": 485.24573691278806,
      "semi_major_axis_km": 6863.692543031755,
      "eccentricity": 0.0001392,
      "inclination_deg": 43.0025,
      "raan_deg": 99.5803,
      "arg_perigee_deg": 275.2169,
      "mean_anomaly_deg": 84.8523,
      "mean_motion_rev_day": 15.26743326
    },
    {
      "epoch": "2026-04-15T15:40:35.246208Z",
      "apogee_km": 486.59432980840575,
      "perigee_km": 484.82345756783434,
      "latitude_deg": 2.170233145774905e-05,
      "longitude_deg": 15.081098904069457,
      "height_km": 485.2288948253228,
      "semi_major_axis_km": 6863.84589368812,
      "eccentricity": 0.000129,
      "inclination_deg": 42.9974,
      "raan_deg": 94.0401,
      "arg_perigee_deg": 286.8321,
      "mean_anomaly_deg": 73.2389,
      "mean_motion_rev_day": 15.26692161
    },
    {
      "epoch": "2026-04-16T15:13:42.375072Z",
      "apogee_km": 486.0739110602608,
      "perigee_km": 485.26672731952476,
      "latitude_deg": 3.531504171253171e-05,
      "longitude_deg": 15.301266253893994,
      "height_km": 485.0429510700061,
      "semi_major_axis_km": 6863.807319189893,
      "eccentricity": 5.88e-05,
      "inclination_deg": 43.0003,
      "raan_deg": 88.5072,
      "arg_perigee_deg": 356.8485,
      "mean_anomaly_deg": 3.2363,
      "mean_motion_rev_day": 15.26705031
    },
    {
      "epoch": "2026-04-17T22:37:50.047968Z",
      "apogee_km": 486.18757324186026,
      "perigee_km": 485.1261561586234,
      "latitude_deg": 3.643429340685192e-06,
      "longitude_deg": -104.39857584932078,
      "height_km": 485.5105502515326,
      "semi_major_axis_km": 6863.793864700242,
      "eccentricity": 7.732e-05,
      "inclination_deg": 43.0023,
      "raan_deg": 81.129,
      "arg_perigee_deg": 98.5353,
      "mean_anomaly_deg": 261.5586,
      "mean_motion_rev_day": 15.2670952
    },
    {
      "epoch": "2026-04-18T14:19:51.981024Z",
      "apogee_km": 486.52614023866045,
      "perigee_km": 484.4299921974389,
      "latitude_deg": 4.372656362632559e-05,
      "longitude_deg": 15.759714412587076,
      "height_km": 485.2593020860789,
      "semi_major_axis_km": 6863.61506621805,
      "eccentricity": 0.0001527,
      "inclination_deg": 43.003,
      "raan_deg": 77.4401,
      "arg_perigee_deg": 269.7802,
      "mean_anomaly_deg": 90.2875,
      "mean_motion_rev_day": 15.26769177
    },
    {
      "epoch": "2026-04-19T13:52:59.668032Z",
      "apogee_km": 486.0667884249142,
      "perigee_km": 484.9754667826255,
      "latitude_deg": 2.241622480431708e-05,
      "longitude_deg": 15.975309932221924,
      "height_km": 485.39382929944304,
      "semi_major_axis_km": 6863.65812760377,
      "eccentricity": 7.95e-05,
      "inclination_deg": 43.0024,
      "raan_deg": 71.905,
      "arg_perigee_deg": 259.8452,
      "mean_anomaly_deg": 100.231,
      "mean_motion_rev_day": 15.26754809
    },
    {
      "epoch": "2026-04-20T13:26:07.984032Z",
      "apogee_km": 486.62320186170746,
      "perigee_km": 484.5117890848096,
      "latitude_deg": -1.180101313526879e-05,
      "longitude_deg": 16.188962675398322,
      "height_km": 485.460355761498,
      "semi_major_axis_km": 6863.704495473258,
      "eccentricity": 0.00015381,
      "inclination_deg": 43.0038,
      "raan_deg": 66.3706,
      "arg_perigee_deg": 263.7156,
      "mean_anomaly_deg": 96.352,
      "mean_motion_rev_day": 15.26739338
    },
    {
      "epoch": "2026-04-21T20:50:17.907648Z",
      "apogee_km": 486.3476152455687,
      "perigee_km": 484.8266139817697,
      "latitude_deg": 1.5015713389420085e-05,
      "longitude_deg": -103.52232576129664,
      "height_km": 485.5387030364223,
      "semi_major_axis_km": 6863.7241146136685,
      "eccentricity": 0.0001108,
      "inclination_deg": 43.0019,
      "raan_deg": 58.9903,
      "arg_perigee_deg": 256.7048,
      "mean_anomaly_deg": 103.368,
      "mean_motion_rev_day": 15.26732792
    },
    {
      "epoch": "2026-04-22T20:23:26.056032Z",
      "apogee_km": 486.17025316108266,
      "perigee_km": 485.0391085320798,
      "latitude_deg": -2.3342161050908454e-05,
      "longitude_deg": -103.31107776533682,
      "height_km": 485.228244590211,
      "semi_major_axis_km": 6863.741680846581,
      "eccentricity": 8.24e-05,
      "inclination_deg": 43.0004,
      "raan_deg": 53.4528,
      "arg_perigee_deg": 285.6705,
      "mean_anomaly_deg": 74.4055,
      "mean_motion_rev_day": 15.26726931
    },
    {
      "epoch": "2026-04-22T20:23:26.056896Z",
      "apogee_km": 486.1704590733334,
      "perigee_km": 485.03890261982997,
      "latitude_deg": -2.107342283945325e-05,
      "longitude_deg": -103.31107895574031,
      "height_km": 485.2281889804889,
      "semi_major_axis_km": 6863.741680846581,
      "eccentricity": 8.243e-05,
      "inclination_deg": 43.0004,
      "raan_deg": 53.4528,
      "arg_perigee_deg": 285.6705,
      "mean_anomaly_deg": 74.4055,
      "mean_motion_rev_day": 15.26726931
    },
    {
      "epoch": "2026-04-24T19:29:39.056640Z",
      "apogee_km": 486.3919166670148,
      "perigee_km": 484.66913611789096,
      "latitude_deg": 6.628912175793306e-06,
      "longitude_deg": -102.86589445525333,
      "height_km": 485.4623993605033,
      "semi_major_axis_km": 6863.667526392453,
      "eccentricity": 0.0001255,
      "inclination_deg": 43.0034,
      "raan_deg": 42.3866,
      "arg_perigee_deg": 259.6423,
      "mean_anomaly_deg": 100.4287,
      "mean_motion_rev_day": 15.26751673
    },
    {
      "epoch": "2026-04-25T03:20:41.368416Z",
      "apogee_km": 486.8448104995714,
      "perigee_km": 484.21588863134,
      "latitude_deg": -1.978043441547139e-05,
      "longitude_deg": 137.20543039074875,
      "height_km": 485.7584278931007,
      "semi_major_axis_km": 6863.667349565455,
      "eccentricity": 0.00019151,
      "inclination_deg": 43.005,
      "raan_deg": 40.54,
      "arg_perigee_deg": 249.9579,
      "mean_anomaly_deg": 110.1066,
      "mean_motion_rev_day": 15.26751732
    },
    {
      "epoch": "2026-04-26T02:53:48.760800Z",
      "apogee_km": 486.5921875868098,
      "perigee_km": 484.4908037785717,
      "latitude_deg": 2.853868834287509e-05,
      "longitude_deg": 137.42403186453572,
      "height_km": 485.53072335257923,
      "semi_major_axis_km": 6863.6784956826905,
      "eccentricity": 0.00015308,
      "inclination_deg": 43.0043,
      "raan_deg": 35.0066,
      "arg_perigee_deg": 258.3641,
      "mean_anomaly_deg": 101.7039,
      "mean_motion_rev_day": 15.26748013
    },
    {
      "epoch": "2026-04-27T18:09:00.678240Z",
      "apogee_km": 486.6300886078534,
      "perigee_km": 484.48175272368553,
      "latitude_deg": -5.764792809113128e-05,
      "longitude_deg": -102.21439110255531,
      "height_km": 485.5797591406135,
      "semi_major_axis_km": 6863.69292066577,
      "eccentricity": 0.0001565,
      "inclination_deg": 43.0034,
      "raan_deg": 25.78,
      "arg_perigee_deg": 256.7279,
      "mean_anomaly_deg": 103.3397,
      "mean_motion_rev_day": 15.267432
    },
    {
      "epoch": "2026-04-28T17:42:08.151840Z",
      "apogee_km": 486.63950982083406,
      "perigee_km": 484.48842593750123,
      "latitude_deg": 5.04584960303495e-05,
      "longitude_deg": -101.99556449659006,
      "height_km": 485.47792236693004,
      "semi_major_axis_km": 6863.700967879167,
      "eccentricity": 0.0001567,
      "inclination_deg": 43.0041,
      "raan_deg": 20.2471,
      "arg_perigee_deg": 262.7028,
      "mean_anomaly_deg": 97.3646,
      "mean_motion_rev_day": 15.26740515
    }
  ]
}